MALLIGYONG-1            
1 58400U 23179A   24007.17903347  .00005074  00000+0  22585-3 0  9996
2 58400  97.4256 256.3424 0017394 111.7978 248.5110 15.21781343  7087
